{
  "norad_id": 60740,
  "name": "STARLINK-32315",
  "history": [
    {
      "epoch": "2026-03-28T17:28:12.061632",
      "apogee_km": 476.15879595648494,
      "perigee_km": 474.29783313897224,
      "latitude_deg": -0.5512513633443882,
      "longitude_deg": -36.11993152019568,
      "semi_major_axis_km": 6853.365314547728,
      "eccentricity": 0.00013577,
      "inclination_deg": 53.1599,
      "raan_deg": 180.1434,
      "arg_perigee_deg": 76.3744,
      "mean_anomaly_deg": 283.7408,
      "mean_motion_rev_day": 15.30195564
    }
  ]
}